Business Name,Description,Industry Code,Industry,Employees,Address,Mailing Address,Distance,Phone,Key Contact,Title,Web Site,Established
Teamlogic IT,Information Technology Services,541500,Computer Systems Design and Related Services,10-99,"427 High St # 525 BURLINGTON, NJ 08016-4551",,0.2,609-526-3600,Stewart Paul,Manager,TEAMLOGICIT.COM,2020
VR Computer Svc,Computers-Networking,541500,Computer Systems Design and Related Services,1-4,"427 High St BURLINGTON, NJ 08016-4587",,0.2,609-387-1100,,,,2004
Able Technology Partners LLC,Information Technology Services,541500,Computer Systems Design and Related Services,5-9,"102 W Broad St # 1 BURLINGTON, NJ 08016-1406",,0.2,856-266-9740,Brian Minker,Owner,ABLETP.NET,2017
Focused Ingenuity Inc,Computer Integrated Systems Design,541500,Computer Systems Design and Related Services,5-9,"205 Wood St BURLINGTON, NJ 08016-4405",,0.4,443-371-3090,,,,2009
Cementex Insulated Tool Co,Hardware Consultants,541500,Computer Systems Design and Related Services,5-9,"650 Jacksonville Rd BURLINGTON, NJ 08016-3333",,0.6,609-387-5590,,,CEMENTEXUSA.COM,2013
Twin Oak Group Inc,Website Design Service,541500,Computer Systems Design and Related Services,5-9," BURLINGTON, NJ 08016",,0.8,609-589-3926,,,,2006
Madagoni LLC,Computer Integrated Systems Design,541500,Computer Systems Design and Related Services,1-4,"800 Columbus Rd BURLINGTON, NJ 08016-1802",,0.8,848-000-1111,,,,2022
Intelligent Design Design,Computers-System Designers & Consultants,541500,Computer Systems Design and Related Services,5-9,"306 Sunset Rd BURLINGTON, NJ 08016-3605",,1.7,609-239-4466,Lee Reeves,CEO,I-DESIGNLLC.COM,2012
Atlas Labs LLC,Software/Application/Platform Developers & Pr,541500,Computer Systems Design and Related Services,1-4,"355 Washington St BRISTOL, PA 19007-5207","20 Lenape Trl
Medford Lakes, NJ 08055-1223",1.9,215-000-1111,,,ATLASLABS.WORLD,2021
Joe Becca Technology Group,Data Systems Consultants & Designers,541500,Computer Systems Design and Related Services,1-4,"10 Canal St # 236 BRISTOL, PA 19007-3937",,1.9,215-618-9008,,,,1996
Sapbots Inc,Computer Integrated Systems Design,541500,Computer Systems Design and Related Services,5-9,"13 Castle Rd BURLINGTON, NJ 08016-5121",,2,908-000-1111,,,,2023
VR Computer Svc LLC,Computer Related Services NEC,541500,Computer Systems Design and Related Services,1-4,"35 Foxchase Dr BURLINGTON, NJ 08016-3045",,2.2,609-000-1111,,,VRCOMPUTERSERVICE.COM,2021
Tenable Computer Decisions Inc,Computer Related Services NEC,541500,Computer Systems Design and Related Services,10-99,"1221 Seabird Dr BRISTOL, PA 19007-5246",,2.5,410-872-0555,David Byrne,Manager,TENABLE.COM,2015
Kuickfix,Computer Services,541500,Computer Systems Design and Related Services,10-99,"1405 Veterans Hwy # G8 BRISTOL, PA 19007-2319",,2.9,215-000-1111,,,,2014
E Waste Experts Inc,Computer Related Services NEC,541500,Computer Systems Design and Related Services,10-99,"416 Green Ln BRISTOL, PA 19007-4001",,3,215-785-2739,Carl Brown,President,EWASTEEXPERTS.COM,2013
Micro Technology Groupe Inc,Computers-Networking,541500,Computer Systems Design and Related Services,10-99,"200 Rittenhouse Cir # 3W BRISTOL, PA 19007-1626",,3.1,215-788-6811,,,247TECH.COM,2006
Clario,Data Retrieval Services,541500,Computer Systems Design and Related Services,10-99,"1501 Grundy Ln # A BRISTOL, PA 19007-1506",,3.2,215-781-8302,,,CLARIO.COM,2018
Peter Zilahy Ingerman PH,Computers-System Designers & Consultants,541500,Computer Systems Design and Related Services,5-9,"40 Needlepoint Ln WILLINGBORO, NJ 08046-1928",,3.2,609-871-7474,,,,1957
Data-Core Systems Inc,Information Technology Services,541500,Computer Systems Design and Related Services,100-499,"111 Sinclair Rd BRISTOL, PA 19007",,3.4,215-243-1990,Ron Szoszak,Vice President,DATACORESYSTEMS.COM,2007
E2Dag LLC,Software/Application/Platform Developers & Pr,541500,Computer Systems Design and Related Services,5-9,"52 Peachfield Ln WILLINGBORO, NJ 08046-2617","A1 Bentley Rd
Eastampton Twp, NJ 08060-3345",3.5,908-000-1111,,,,2023
Paperless Solutions Inc,Information Technology Services,541500,Computer Systems Design and Related Services,10-99,"3580 Progress Dr # I BENSALEM, PA 19020-5800",,3.7,215-604-1330,Alexa Chudzinski,Marketing,,2006
Alpha Beta Computer Solutions,Computer Services,541500,Computer Systems Design and Related Services,10-99,"1837 Parkview Ave BRISTOL, PA 19007-6715",,3.7,215-287-0742,Chris Cinalli,Owner,ALPHABETACOMPUTER.COM,2015
Broad Street Media LLC,Website Design Service,541500,Computer Systems Design and Related Services,1-4,"3412 Progress Dr BENSALEM, PA 19020-5817",,3.8,215-354-3054,,,NORTHEASTTIMES.COM,2019
Kimmel Group,Computers-System Designers & Consultants,541500,Computer Systems Design and Related Services,5-9,"58 Bentwood Dr WESTAMPTON, NJ 08060-5640",,3.8,609-835-4552,,,,2003
Taylor Software Svc,Computers-System Designers & Consultants,541500,Computer Systems Design and Related Services,1-4,"1107 Sheffield Ct BENSALEM, PA 19020-4824",,3.8,215-244-4565,R Taylor,Owner,,1994
Totalweb Co,Website Design Service,541500,Computer Systems Design and Related Services,1-4,"3070 Bristol Pike # 203 BENSALEM, PA 19020-5364",,4.1,267-304-2519,Greg Rusk,Other,TOTALWEBCOMPANY.COM,2012
Madads Media,Website Design Service,541500,Computer Systems Design and Related Services,1-4,"1248 William Penn Dr BENSALEM, PA 19020-4377",,4.2,856-874-8928,,,,2019
Adam York,Website Design Service,541500,Computer Systems Design and Related Services,1-4,"69 Blue Ridge Dr LEVITTOWN, PA 19057-3021",,4.2,215-943-5838,,,,2003
Lexicon International Corp,Information Technology Services,541500,Computer Systems Design and Related Services,1-4,"1400 Adams Rd # A BENSALEM, PA 19020-3965","PO Box 20850
Fountain Valley, CA 92728-0850",4.3,215-639-8220,,,LEXICON-INT.COM,2018
Xcent,Computers-System Designers & Consultants,541500,Computer Systems Design and Related Services,10-99,"7900 N Radcliffe St # 13 BRISTOL, PA 19007-5900",,4.3,215-269-6500,,,XCENT.COM,2019
Emco Technology Inc,Computers-Networking,541500,Computer Systems Design and Related Services,1-4,"6021 Ward Ln LEVITTOWN, PA 19057-4305",,4.5,215-547-7904,Emil Pilacik Jr,President,,2008
Open Space Digital Inc,Software/Application/Platform Developers & Pr,541500,Computer Systems Design and Related Services,1-4,"24 Farmbrook Dr LEVITTOWN, PA 19055-2101",,4.7,215-000-1111,,,,2020
PDC Tech Inc,Computer Integrated Systems Design,541500,Computer Systems Design and Related Services,1-4,"2695 June Ave BENSALEM, PA 19020-4169",,4.8,215-000-1111,,,,2022
Alexander Schneider USA Inc,Information Technology Services,541500,Computer Systems Design and Related Services,10-99,"501 Cambria Ave BENSALEM, PA 19020-7213",,4.8,888-851-5782,Oz Shahar,President,,2016
Wrazy,Computers-Support Services,541500,Computer Systems Design and Related Services,5-9,"501 Cambria Ave # 374 BENSALEM, PA 19020-7213",,4.8,855-770-0998,,,WRAZY.COM,2023
Midnshift Technologies,Computers-Networking,541500,Computer Systems Design and Related Services,10-99,"6139 Bristol Emilie Rd LEVITTOWN, PA 19057-2802",,4.9,215-946-5877,Dawn Curran,Manager,RICOH-USA.COM,2008
Choksi Inc,Computer Integrated Systems Design,541500,Computer Systems Design and Related Services,1-4,"2488 Headhouse Sq S BENSALEM, PA 19020-3668","6096 Spindle Tree Ct
Woodbridge, VA 22193-6026",5.1,215-639-2913,Pragnay Choksi,Owner,PROKSISYSTEMS.COM,2011
Calkins Digital Solutions,Website Design Service,541500,Computer Systems Design and Related Services,1-4,"8400 Bristol Pike LEVITTOWN, PA 19057-5117",,5.2,215-000-1111,Yancey Douris,Director,,2015
Embrace Computers It Support,Computers-Networking,541500,Computer Systems Design and Related Services,5-9,"200 Jnwd Dr Lvttwn Pa 19055 Un LEVITTOWN, PA 19055",,5.2,888-331-8448,,,,2023
Umax Systems LLC,Software/Application/Platform Developers & Pr,541500,Computer Systems Design and Related Services,1-4,"48 Cypress Point Rd MT HOLLY, NJ 08060-4742",,5.2,609-261-2510,,,,2011
GXP Partners LLC,Software/Application/Platform Developers & Pr,541500,Computer Systems Design and Related Services,10-99,"18 Spicebush Rd LEVITTOWN, PA 19056-2213",,5.5,215-752-8699,David Smith,President,GXPPARTNERS.COM,2002
Inverse Paradox LLC,Website Design Service,541500,Computer Systems Design and Related Services,10-99,"3 Hulme Ave HULMEVILLE, PA 19047-5617",,5.5,215-478-6586,Melissa Cherepanya,Owner,INVERSEPARADOX.COM,2009
Driscoll Web Development,Website Design Service,541500,Computer Systems Design and Related Services,1-4,"3060 Bristol Rd # 296 BENSALEM, PA 19020-2104",,5.7,609-937-2116,,,DRISCOLLWEBDEV.COM,2020
Data Vista,Computers-System Designers & Consultants,541500,Computer Systems Design and Related Services,10-99,"5198 US Highway 130 # A BORDENTOWN, NJ 08505-4621",,5.7,609-424-0570,Stephen Gifford,President,,1999
Jobecca Technology Group LLC,Computers-System Designers & Consultants,541500,Computer Systems Design and Related Services,5-9,"970 Durham Rd LANGHORNE, PA 19047-5739",,5.9,215-891-9501,Michael Einbinderschat,Owner,,2003
Automated Computer Svc,Data Systems Consultants & Designers,541500,Computer Systems Design and Related Services,1-4,"822 Fir Ave LANGHORNE, PA 19047-5474",,5.9,215-702-0901,Chris Bradbury,President,,1995
Hkmtech Inc,Computer Related Services NEC,541500,Computer Systems Design and Related Services,1-4,"324 Thunder Cir BENSALEM, PA 19020-2162",,6,215-000-1111,,,,2021
VKS Consulting Group LLC,Software/Application/Platform Developers & Pr,541500,Computer Systems Design and Related Services,1-4,"5 Doral Ct MOORESTOWN, NJ 08057-3971",,6.2,856-000-1111,,,,2022
Able Technology,Computer Services,541500,Computer Systems Design and Related Services,1-4,"201 Fleetwood Ave MT LAUREL, NJ 08054-2016",,6.4,856-266-9740,Brian Minker,Owner,ABLETP.NET,2013
Micro Technology Group,Information Technology Services,541500,Computer Systems Design and Related Services,10-99,"520 State Rd # A BENSALEM, PA 19020-7831",,6.4,215-247-8324,Ettore Dragone,Owner,247TECH.COM,1989
Compudata Inc,Computers-Networking,541500,Computer Systems Design and Related Services,10-99," PHILADELPHIA, PA 19154-1087",,6.5,215-969-1000,Angela M Nadeau,President,COMPUDATA.COM,1971
Lord Computer Inc,Computer Services,541500,Computer Systems Design and Related Services,1-4,"50 Centre St LANGHORNE, PA 19047-5232",,6.6,267-512-6925,Gary Medina,Owner,LORDCOMPUTER.COM,2014
Storm Front BBS,Computer Consultants,541500,Computer Systems Design and Related Services,1-4,"18 Craig Dr COLUMBUS, NJ 08022-1204",,6.6,609-000-1111,William J Bailey,Owner,,2018
Pics Itech,Information Technology Services,541500,Computer Systems Design and Related Services,10-99,"46 High St MT HOLLY, NJ 08060-1702",,6.7,609-702-3920,Michael Procopio,CIO/CTO,OMEGASYSTEMSCORP.COM,1995
Engine 9STUDIOS,Computer Graphics,541500,Computer Systems Design and Related Services,1-4,"100 Ashurst Ln MT HOLLY, NJ 08060-1202","PO Box 250
Mt Holly, NJ 08060-0250",6.7,609-784-8049,,,,2013
Unlimited Computer Solutions,Computers-Networking,541500,Computer Systems Design and Related Services,10-99,"3601 Fenn Dr PHILADELPHIA, PA 19154-4112",,6.7,215-632-9015,,,,2012
Key Communications,Data Systems Consultants & Designers,541500,Computer Systems Design and Related Services,1-4,"1819 Underwood Blvd DELRAN, NJ 08075-1246",,6.7,856-461-4585,,,,2008
Wizard's PC Svc,Software/Application/Platform Developers & Pr,541500,Computer Systems Design and Related Services,1-4," LEVITTOWN, PA 19054",,6.9,267-767-4224,,,,2010
Elite Services,Website Design Service,541500,Computer Systems Design and Related Services,1-4,"9860 Frankford Ave # 1 PHILADELPHIA, PA 19114-2010",,7,215-303-2980,,,,2015
Infoglobesys Inc,Software/Application/Platform Developers & Pr,541500,Computer Systems Design and Related Services,1-4,"3 Melissa Ct MOORESTOWN, NJ 08057-2153","788 Waymarket Dr
Ann Arbor, MI 48103-6445",7.1,856-000-1111,,,,2022
Moving Forward It,Information Technology Services,541500,Computer Systems Design and Related Services,5-9," FEASTERVL TRVS, PA 19053",,7.2,215-504-5050,Christo Ramo,Manager,,2018
Mastertel USA Inc,Information Technology Services,541500,Computer Systems Design and Related Services,5-9,"100 Technology Way MT LAUREL, NJ 08054-9789",,7.3,856-234-9400,,,MASTERTELUSA.COM,2018
AC Web Creations,Website Design Service,541500,Computer Systems Design and Related Services,1-4,"5225 Arendell Ave PHILADELPHIA, PA 19114-4229",,7.3,215-870-9443,Anna Callaghan,Owner,,2003
Leverage Solutions Consltng,Computer Integrated Systems Design,541500,Computer Systems Design and Related Services,5-9,"5 Interplex Dr FEASTERVL TRVS, PA 19053-6941",,7.3,215-000-1111,,,LEVERAGESC.COM,2018
Pragmatics Inc,Computers-Networking,541500,Computer Systems Design and Related Services,10-99,"5 Interplex Dr # 205 FEASTERVL TRVS, PA 19053-6932",,7.3,215-244-0242,Drew Velten,Manager,PRAGMATICS.COM,2012
DSA Inc,Information Technology Services,541500,Computer Systems Design and Related Services,1-4,"8 Interplex Dr # 209 FEASTERVL TRVS, PA 19053-6980",,7.3,215-245-4800,Frances Pierce,President,DSAINC.COM,1963
Zalut Consulting LLC,Software/Application/Platform Developers & Pr,541500,Computer Systems Design and Related Services,1-4,"4 Wembley Dr MT LAUREL, NJ 08054-3117",,7.4,908-000-1111,,,,2022
Innovative Technology Holdings,Computer Related Services NEC,541500,Computer Systems Design and Related Services,10-99,"240 Middletown Blvd # 100 LANGHORNE, PA 19047-1832",,7.4,215-000-1111,,,INNOVATIVETECHHOLDINGS.COM,2015
B & C Computer Solutions,Computer Services,541500,Computer Systems Design and Related Services,5-9,"702 Main St # 264 LUMBERTON, NJ 08048-8010",,7.4,800-731-6494,,,EMERGENCYZONES.COM,2015
CSST Software LLC,Software/Application/Platform Developers & Pr,541500,Computer Systems Design and Related Services,5-9,"100 Mount Holly By Pass LUMBERTON, NJ 08048-1112",,7.5,609-000-1111,,,EMPOWORBYCSST.COM,2021
Inverse Paradox LLC,Website Design Service,541500,Computer Systems Design and Related Services,5-9,"3 Hulme Ave Johnson House HULMEVILLE, PA 19047",,7.5,215-478-6586,,,INVERSEPARADOX.COM,2007
Nekey,Information Technology Services,541500,Computer Systems Design and Related Services,5-9,"740 Marne Hwy # 105 MOORESTOWN, NJ 08054-3126",,7.6,888-869-1331,,,NEKEY.COM,2023
R Scheipe Consulting Inc,Software/Application/Platform Developers & Pr,541500,Computer Systems Design and Related Services,1-4,"25 Red Hill Ct MT LAUREL, NJ 08054-3192",,7.7,609-332-8453,,,NEWJERSEYBIDS.US,2017
Ancero LLC,Information Technology Services,541500,Computer Systems Design and Related Services,10-99,"5000 Dearborn Cir # 300 MT LAUREL, NJ 08054-4100",,7.7,856-210-5800,Barbara Hizer,Director,ANCERO.COM,1998
Virgo Inc,Computers-System Designers & Consultants,541500,Computer Systems Design and Related Services,10-99,"400 Middletown Blvd # 107 LANGHORNE, PA 19047-1819",,7.9,215-310-1562,Ramesh Pothuru,Owner,,2007
Perspecta LLC,Software/Application/Platform Developers & Pr,541500,Computer Systems Design and Related Services,10-99,"1170 Wheeler Way # 200 LANGHORNE, PA 19047-3248",,7.9,866-498-4423,John Zubak,CEO,PERSPECTA.COM,2006
Gridai Inc,Software/Application/Platform Developers & Pr,541500,Computer Systems Design and Related Services,1-4,"3809 Brownsville Rd TREVOSE, PA 19053-7957",,8.1,215-000-1111,,,GRIDAI.NET,2020
Lionobytes LLC,Software/Application/Platform Developers & Pr,541500,Computer Systems Design and Related Services,5-9,"272 Dunns Mill Rd BORDENTOWN, NJ 08505-4748",,8.2,609-531-0899,Arun Upadhyay,Sales,LIONO360.COM,2018
Seo Sparta,Website Design Service,541500,Computer Systems Design and Related Services,5-9,"15 Bowman Dr FEASTERVL TRVS, PA 19053-1602",,8.4,215-900-9398,Oleksandr Stepman,Owner,SEOSPARTA.COM,2005
Vujaday Creative Digital Agcy,Website Design Service,541500,Computer Systems Design and Related Services,1-4,"821 Green Ridge Cir LANGHORNE, PA 19053-1966",,8.5,267-784-0279,,,VUJADAYDIGITAL.COM,2017
Idea Lab Digital,Website Design Service,541500,Computer Systems Design and Related Services,10-99,"133 E Main St # 1 MOORESTOWN, NJ 08057-2929",,8.7,856-642-0007,Diane Pilla,Exec Officer,,2016
Gtime Consultancy Svc LLC,Computer Integrated Systems Design,541500,Computer Systems Design and Related Services,1-4,"1591 Jason Dr CINNAMINSON, NJ 08077-1557","2496 Route 130 N
Cinnaminson, NJ 08077-8099",8.7,856-000-1111,,,GTIMECS.ORG,2017
Aim Document Management,Computer Graphics,541500,Computer Systems Design and Related Services,10-99,"510 N Belleview Ave CINNAMINSON, NJ 08077-1535","PO Box 2343
Cinnaminson, NJ 08077-5343",8.7,856-314-8252,,,AIMDOCUMENT.COM,2003
Otava,Hardware Consultants,541500,Computer Systems Design and Related Services,1-4,"26 E 2nd St MOORESTOWN, NJ 08057-3344",,8.9,856-206-9148,,,OTAVAINC.COM,2018
CTRL Z Group LLC,Information Technology Services,541500,Computer Systems Design and Related Services,10-99," PHILADELPHIA, PA 19116",,8.9,267-603-2181,,,CTRLZ-GROUP.COM,2016
Cyber Security Consulting Ops,Information Technology Services,541500,Computer Systems Design and Related Services,10-99,"309 Fellwshp Rd E Gte Center M MT LAUREL, NJ 08054",,9,856-000-1111,,,CYBERSECURITYCONSULTINGOPS.COM,2023
Teamlogic IT,Information Technology Services,541500,Computer Systems Design and Related Services,10-99,"309 Fllwshp Rd # 200 Astgatece MT LAUREL, NJ 08054-1234",,9,856-234-2136,Stewart Paul,Owner,TEAMLOGICIT.COM,2019
Purple Star Media,Website Design Service,541500,Computer Systems Design and Related Services,1-4,"148 E Street Rd # 188 FEASTERVL TRVS, PA 19053-7604",,9,267-288-5785,,,PURPLESTARMEDIA.COM,2015
Sides Media Studio,Website Design Service,541500,Computer Systems Design and Related Services,1-4,"11 Franklin Ave FEASTERVL TRVS, PA 19053-6410",,9,215-774-1055,Daniel Sides,Manager,SIDESSTORE.COM,2007
Keefe Commissary Network,Software/Application/Platform Developers & Pr,541500,Computer Systems Design and Related Services,1-4,"7901 State Rd PHILADELPHIA, PA 19136-3407",,9.1,215-685-7942,,,KEEFEGROUP.COM,2015
Tlksolution,Computers-Networking,541500,Computer Systems Design and Related Services,10-99,"2133 Grant Ave PHILADELPHIA, PA 19115-4309",,9.2,215-856-3552,,,,2015
Creative Web Results LLC,Website Design Service,541500,Computer Systems Design and Related Services,1-4,"10871 Bustleton Ave # 120 PHILADELPHIA, PA 19116-3301",,9.2,888-493-6170,Kurien Abraham,Exec Officer,CREATIVEWEBRESULTS.COM,2010
ACAD.US.COM LLC,Computer Consultants,541500,Computer Systems Design and Related Services,1-4,"230 W 2nd St MOORESTOWN, NJ 08057-2328",,9.2,856-369-1972,Dustin Cucinotta,Owner,ACAD.US.COM,1971
Agapi Lab Solutions,Software/Application/Platform Developers & Pr,541500,Computer Systems Design and Related Services,1-4,"301 Oxford Valley Rd YARDLEY, PA 19067-7706","301 Oxford Valley Rd # 505B
Yardley, PA 19067-7711",9.2,267-397-3345,,,AGAPILABSOLUTIONS.COM,2017
Alankok,Computer Integrated Systems Design,541500,Computer Systems Design and Related Services,5-9,"214 W Main St # L6 MOORESTOWN, NJ 08057-2300",,9.2,609-474-8109,,,ALANKOK.US,2020
CSG Technologies-Nj,Computers-System Designers & Consultants,541500,Computer Systems Design and Related Services,5-9,"214 W Main St MOORESTOWN, NJ 08057-2345",,9.2,856-231-8001,Marc Tucker,Owner,CSGTECH.COM,1994
Distributed Computing Inc,Computer Related Services NEC,541500,Computer Systems Design and Related Services,1-4,"30 Twosome Dr MOORESTOWN, NJ 08057-1370",,9.2,856-914-0233,,,DISTCOMP.COM,2019
Technology Services LLC,Computers-System Designers & Consultants,541500,Computer Systems Design and Related Services,10-99,"800 N Church St # 105 MOORESTOWN, NJ 08057-1773",,9.3,856-234-9993,Peter Carlyle,President,TECHSERVICESLLC.COM,2006
Digipulse Technologies Inc,Information Technology Services,541500,Computer Systems Design and Related Services,10-99,"68 Stacy Haines Rd LUMBERTON, NJ 08048-4106",,9.4,609-265-1666,,,,2017
Blue Horizon Devmnt & Software,Software/Application/Platform Developers & Pr,541500,Computer Systems Design and Related Services,10-99,"1247 N Church St # 5 MOORESTOWN, NJ 08057-1153","PO Box 664
Moorestown, NJ 08057-0664",9.4,856-231-4458,William Lundgren,President,,1968
Networks Plus,Information Technology Services,541500,Computer Systems Design and Related Services,5-9,"504 Route 130 N CINNAMINSON, NJ 08077-3370",,9.4,856-786-3500,Jerry Caruso,Vice President,NETWORKSPLUSCO.COM,2005
APM Systems Inc,Computers-Networking,541500,Computer Systems Design and Related Services,5-9,"1313 S Pennsylvania Ave MORRISVILLE, PA 19067-1275",,9.5,215-295-1097,,,APMIT.COM,2002
Seagal Solutions Inc,Software/Application/Platform Developers & Pr,541500,Computer Systems Design and Related Services,1-4,"361 Gardner St PHILADELPHIA, PA 19116-2733","PO Box 1463
Southampton, PA 18966-0831",9.5,215-000-1111,,,,2018
Eab Enterprises Inc,Computers-System Designers & Consultants,541500,Computer Systems Design and Related Services,5-9,"303 E Pennsylvania Blvd FEASTERVL TRVS, PA 19053-7846","PO Box 938
Newtown, PA 18940-0844",9.6,215-860-7910,Edward Bradbury,President,EABENTERPRISES.COM,1984
Managed Services It,Information Technology Services,541500,Computer Systems Design and Related Services,10-99,"304 E Pennsylvania Blvd # 2 FEASTERVL TRVS, PA 19053-7846",,9.6,215-355-3997,Lori Powell,Manager,MANAGEDSERVICESIT.COM,2012
Validation Associates Inc,Computers-System Designers & Consultants,541500,Computer Systems Design and Related Services,1-4,"305 E Pennsylvania Blvd FEASTERVL TRVS, PA 19053-7846",,9.6,215-354-1720,Nancy Tucker,Owner,VALIDATIONASSOCIATES.COM,2000
Emaxed,Website Design Service,541500,Computer Systems Design and Related Services,5-9,"212 W Route 38 # 106 MOORESTOWN, NJ 08057-3260",,9.6,856-428-8038,Michael Zielinski,CEO,EMAXED.COM,2008
Web Development Svc,Website Design Service,541500,Computer Systems Design and Related Services,1-4,"201 Buck Rd HOLLAND, PA 18966-1715",,9.6,215-354-1239,,,,2000
Total Technology Resources,Computer Consultants,541500,Computer Systems Design and Related Services,1-4,"10063 Sandmeyer Ln # 100 PHILADELPHIA, PA 19116-3501",,9.7,215-464-8121,Justin Colantonio,Owner,THETECHRESOURCE.COM,2004
Acclaim Systems Inc,Software/Application/Platform Developers & Pr,541500,Computer Systems Design and Related Services,100-499,"110 E Pennsylvania Blvd FEASTERVL TRVS, PA 19053-7843",,9.7,215-354-1420,Kailash Kalantri,CEO,ACCLAIMSYSTEMS.COM,1997
C & R Communications Inc,Computer Related Services NEC,541500,Computer Systems Design and Related Services,1-4,"875 Pennsylvania Blvd # 5 FEASTERVL TRVS, PA 19053-7800",,9.7,215-000-1111,,,CANDRCOMMUNICATIONSGROUP.COM,2021
Top Notch Computer Solutions,Computers-Networking,541500,Computer Systems Design and Related Services,10-99,"10067 Sandmeyer Ln PHILADELPHIA, PA 19116-3533","PO Box 21357
Philadelphia, PA 19141-0357",9.7,215-843-5056,Stokley Tomlinson,Owner,TNCSPRO.COM,2008
Liberty Technology Solutions,Information Technology Services,541500,Computer Systems Design and Related Services,10-99,"1503 Glen Ave # 130 MOORESTOWN, NJ 08057-1144",,9.7,856-762-1222,Gerry Gordon,CEO,LIBERTYLTS.COM,1996
Dascase Technologies Inc,Information Technology Services,541500,Computer Systems Design and Related Services,10-99,"81 Big Oak Rd # 134 YARDLEY, PA 19067-7802",,9.8,215-395-6373,E G Manoj Kumar,Manager,DASCASE.COM,2019
Matchpoint Consulting,Computers-Networking,541500,Computer Systems Design and Related Services,1-4,"300 W Route 38 MOORESTOWN, NJ 08057-3233",,10,856-439-6493,,,,2011
Agility Consulting LLC,Software/Application/Platform Developers & Pr,541500,Computer Systems Design and Related Services,1-4,"39 Periwinkle Dr MT LAUREL, NJ 08054-5702",,10,856-000-1111,,,,2020
Trinity Information Tech LLC,Software/Application/Platform Developers & Pr,541500,Computer Systems Design and Related Services,1-4,"310 Floral Vale Blvd YARDLEY, PA 19067-5525",,10,267-000-1111,,,,2021
Discount Computer Svc Inc,Information Technology Services,541500,Computer Systems Design and Related Services,5-9,"8408 Large St PHILADELPHIA, PA 19152-1905",,10.1,215-856-0400,Adam Vogel,President,DISCOUNTCOMPUTERSERVICES.COM,2012
Healthweb Solutions,Information Technology Services,541500,Computer Systems Design and Related Services,5-9,"668 Stony Hill Rd YARDLEY, PA 19067-4498",,10.1,215-295-5100,Joe Coyne,CEO,WW5.HEALTHWEB-SOLUTIONS.COM,2015
Techna Grow,Information Technology Services,541500,Computer Systems Design and Related Services,10-99," YARDLEY, PA 19067",,10.1,215-801-2292,,,TECHNAGROW.COM,2019
FCC Consulting Svc LLC,Computer Integrated Systems Design,541500,Computer Systems Design and Related Services,1-4,"39 Birmingham Dr COLUMBUS, NJ 08022-2343",,10.1,609-000-1111,Chris Carothers,President,FCCCONSULTINGSERVICES.COM,2016
Line & Tone,Website Design Service,541500,Computer Systems Design and Related Services,5-9,"17 W Spring Garden St PALMYRA, NJ 08065-2548",,10.1,609-321-4403,Jonathan Evans,Owner,LINEANDTONE.COM,2011
Chenosa Systems Corp,Software/Application/Platform Developers & Pr,541500,Computer Systems Design and Related Services,1-4,"302 Harper Dr MOORESTOWN, NJ 08057-4701",,10.1,609-953-6850,,,PROPHOENIX.COM,2016
Computer Helpline Inc,Computers-System Designers & Consultants,541500,Computer Systems Design and Related Services,1-4,"801 W Street Rd # 4 FEASTERVL TRVS, PA 19053-7335",,10.2,215-953-9930,Bruce Diamond,President,,1996
Databank's Healthcare Div,Information Technology Services,541500,Computer Systems Design and Related Services,10-99,"458 Pike Rd HUNTINGDON VLY, PA 19006-1610",,10.2,215-322-8100,,,DATABANKIMX.COM,2017
Corporate It Support,Computers-System Designers & Consultants,541500,Computer Systems Design and Related Services,5-9,"101 Route 130 S CINNAMINSON, NJ 08077-2845",,10.2,856-499-2528,,,,2005
Viking Technology Solutions,Computers-Networking,541500,Computer Systems Design and Related Services,1-4,"101 Route 130 S CINNAMINSON, NJ 08077-2845",,10.2,856-499-2343,,,,2015
J P S Systems LLC,Information Technology Services,541500,Computer Systems Design and Related Services,10-99,"1790 Yardley Langhorne Rd YARDLEY, PA 19067-5523",,10.2,215-321-3690,,,,2013
PCS,Computer Consultants,541500,Computer Systems Design and Related Services,5-9,"304 Harper Dr # 130 MOORESTOWN, NJ 08057-3247",,10.2,856-596-4446,Anthony Mongeluzo,CEO,HELPMEPCS.COM,2000
Vortechs Automation Inc,Computer Rooms Monitoring & Management,541500,Computer Systems Design and Related Services,5-9,"470 Veit Rd # A HUNTINGDON VLY, PA 19006-1616",,10.2,215-000-1111,,,VTXAUTO.COM,2018
P-Square Solutions LLC,Software/Application/Platform Developers & Pr,541500,Computer Systems Design and Related Services,10-99,"307 Fellowship Rd # 104 MT LAUREL, NJ 08054-1233",,10.3,856-840-8000,Reddy Patlolla,Owner,P-SQUARESOLUTIONS.COM,2004
Barlen Group,Website Design Service,541500,Computer Systems Design and Related Services,1-4,"67 Buck Rd # B3 HUNTINGDON VLY, PA 19006-1537",,10.3,215-784-9880,Gus Magazzeni,Manager,,1919
Data Oasis Inc,Information Technology Services,541500,Computer Systems Design and Related Services,10-99,"67 Buck Rd # B14 HUNTINGDON VLY, PA 19006-1543",,10.3,215-000-1111,Stewart Garzarelli,President,,2016
Media Components LLC,Website Design Service,541500,Computer Systems Design and Related Services,1-4,"67 Buck Rd # B56 HUNTINGDON VLY, PA 19006-1540",,10.3,215-396-3311,Denis Sinelnikov,Owner,MEDIACOMPONENTS.COM,2001
Anteon Corp,Information Technology Services,541500,Computer Systems Design and Related Services,10-99,"309 Fellowship Rd MT LAUREL, NJ 08054-1234",,10.3,856-642-4040,,,,2006
It Support Solutions,Computers-Support Services,541500,Computer Systems Design and Related Services,1-4,"309 Fellowship Rd # 200 MT LAUREL, NJ 08054-1234",,10.3,856-258-8753,,,ITSUPPORTSOLUTIONS.NET,2019
Juniper Networks,Internet Svcs-Network Designers/Conslnt,541500,Computer Systems Design and Related Services,100-499,"309 Fellowship Rd MT LAUREL, NJ 08054-1234",,10.3,856-642-4010,Patrick Kernan,Manager,JUNIPER.NET,2007
Qellus LLC,Computer Integrated Systems Design,541500,Computer Systems Design and Related Services,5-9,"309 Fellowship Rd MT LAUREL, NJ 08054-1234","309 Fellowship Rd # 200
Mt Laurel, NJ 08054-1234",10.3,856-000-1111,Ihsan Hall,Exec Officer,,2021
Ventures Unlimited Inc,Software/Application/Platform Developers & Pr,541500,Computer Systems Design and Related Services,1-4,"309 Fellowship Rd # 200 MT LAUREL, NJ 08054-1234",,10.3,201-377-5954,Jitu Singh,Partner,VUI-INC.COM,2004
Heraeus Inc,Information Technology Services,541500,Computer Systems Design and Related Services,100-499,"770 Township Line Rd # 300 YARDLEY, PA 19067-4232",,10.3,215-944-9981,Raquel Posada,Manager,HERAEUS.COM,1981
Assetworks Inc,Computers-System Designers & Consultants,541500,Computer Systems Design and Related Services,10-99,"101 Lakeside Park SOUTHAMPTON, PA 18966-4048",,10.3,215-354-1078,,,,2019
Results Guaranteed,Website Design Service,541500,Computer Systems Design and Related Services,1-4,"203 Lakeside Park SOUTHAMPTON, PA 18966-4049",,10.3,215-309-9420,,,RESULTSGUARANTEEDMARKETING.COM,2023
Meadow Gate,Computer Services,541500,Computer Systems Design and Related Services,10-99,"171 Jersey St # 3 TRENTON, NJ 08611-2400",,10.5,609-393-3618,John Wetter,Manager,,2005
Cas It Consulting LLC,Computer Integrated Systems Design,541500,Computer Systems Design and Related Services,1-4,"11 Horseshoe Dr MT LAUREL, NJ 08054-3055",,10.5,908-000-1111,,,,2022
Integ Network Solutions Ntwrk,Computers-Networking,541500,Computer Systems Design and Related Services,1-4,"855 US Highway 206 BORDENTOWN, NJ 08505-1533",,10.5,609-324-0200,,,,2015
EPAM Systems Inc,Software/Application/Platform Developers & Pr,541500,Computer Systems Design and Related Services,10-99,"41 University Dr # 202 NEWTOWN, PA 18940-1873",,10.6,267-759-9000,Elaina Shekhter,Director,EPAM.COM,1993
Swain Online Inc,Computer Integrated Systems Design,541500,Computer Systems Design and Related Services,10-99,"41 University Dr # 467 NEWTOWN, PA 18940-1873",,10.6,215-000-1111,,,,2020
Consolidated Micro Inc,Computer Related Services NEC,541500,Computer Systems Design and Related Services,1-4,"96 Hidden Cove Dr # 100 SOUTHAMPTON, PA 18966-1531",,10.6,215-357-4552,Michael Sham,President,CONSOLIDATEDMICROINC.COM,2015
Assigned Data Inc,Computer Integrated Systems Design,541500,Computer Systems Design and Related Services,5-9,"137 Gaither Dr # F MT LAUREL, NJ 08054-1711","3111 Route 38
Mt Laurel, NJ 08054-9754",10.6,856-231-8400,,,,2013
Forward Tech Solutions LLC,Website Design Service,541500,Computer Systems Design and Related Services,5-9,"131 Gaither Dr MT LAUREL, NJ 08054-1709",,10.6,856-234-5588,,,,2011
Mymanagedtech,Computers-Support Services,541500,Computer Systems Design and Related Services,1-4,"139 Gaither Dr # C MT LAUREL, NJ 08054-1713",,10.6,609-755-4216,Alex Petras,Owner,MYMANAGEDTECH.COM,2000
Enterra Solutions LLC,Information Technology Services,541500,Computer Systems Design and Related Services,10-99,"17 Blacksmith Rd # 200 NEWTOWN, PA 18940-1848",,10.6,215-497-3100,Steve Deangelis,CEO,ENTERRASOLUTIONS.COM,2003
Keystone Information Systems,Software/Application/Platform Developers & Pr,541500,Computer Systems Design and Related Services,10-99,"1000 S Lenola Rd MAPLE SHADE, NJ 08052-1630",,10.7,856-722-0700,Judd Van Dervort Jr,President,KEYINFOSYS.COM,1975
Sapchat Inc,Software/Application/Platform Developers & Pr,541500,Computer Systems Design and Related Services,5-9,"72 Wellesley Way MARLTON, NJ 08053-5627",,10.7,908-000-1111,,,,2023
Ready Solutions LLC,Information Technology Services,541500,Computer Systems Design and Related Services,10-99,"1583 Hainsprt Mt Lurl Rd # R MT LAUREL, NJ 08054-9516",,10.8,856-437-0458,Fred Campbell,Other,READYSOLUTIONS.ORG,2015
Two Six Technologies,Information Technology Services,541500,Computer Systems Design and Related Services,10-99,"501 Fellowship Rd # 201 MT LAUREL, NJ 08054-3419",,10.8,856-000-1111,Kurt Bliefernich,Engr/Tech,TWOSIXTECH.COM,2018
Makefield Consulting Group LLC,Information Technology Services,541500,Computer Systems Design and Related Services,1-4,"115 Pheasant Run # 210 NEWTOWN, PA 18940-1886","PO Box 455
Newtown, PA 18940-0455",10.8,267-352-4440,Dana Cooper,Director,MAKEFIELDGROUP.COM,2016
Sunflower International Inc,Information Technology Services,541500,Computer Systems Design and Related Services,10-99,"115 Pheasant Run # 110 NEWTOWN, PA 18940-1886",,10.8,215-000-1111,,,,2014
Oxenberg Consulting LLC,Software/Application/Platform Developers & Pr,541500,Computer Systems Design and Related Services,5-9,"22 Moorlinch Blvd MEDFORD, NJ 08055-4014",,10.9,908-000-1111,,,,2023
Digital7 Productions,Website Design Service,541500,Computer Systems Design and Related Services,1-4,"1390 Industrial Blvd # B SOUTHAMPTON, PA 18966-4034",,10.9,215-297-3057,Chris Conner,Manager,SEVENWRAPS.COM,2000
CMB Entrp,Website Design Service,541500,Computer Systems Design and Related Services,1-4,"1947 S Broad St TRENTON, NJ 08610-6072",,10.9,609-450-2031,,,,2012
Adax Inc,Software/Application/Platform Developers & Pr,541500,Computer Systems Design and Related Services,5-9,"520 Fellowship Rd MT LAUREL, NJ 08054-3407",,10.9,510-548-7047,,,ADAX.COM,1992
Perfect Wave Technologies LLC,Information Technology Services,541500,Computer Systems Design and Related Services,1-4,"520 Fellowship Rd # B204 MT LAUREL, NJ 08054-3408",,10.9,856-389-9080,Michael Matakonis,Director,PERFECTWAVETECHNOLOGIES.COM,2016
Intraprise Solutions,Software/Application/Platform Developers & Pr,541500,Computer Systems Design and Related Services,10-99,"1020 Stony Hill Rd # 275 YARDLEY, PA 19067-5536","2370 York Rd
Jamison, PA 18929",11,267-685-0091,,,,2016
Selas Heat Technology Co LLC,Information Technology Services,541500,Computer Systems Design and Related Services,10-99,"54 Friends Ln # 125 NEWTOWN, PA 18940-3403",,11,215-646-6600,,,SELAS.COM,2016
Advanced Computer Solutions,Computers-System Designers & Consultants,541500,Computer Systems Design and Related Services,5-9,"521 Fellowship Rd # 140 MT LAUREL, NJ 08054-3442",,11.1,856-242-3601,,,SILVERSKY.COM,2015
Cirring Interactive,Computer Consultants,541500,Computer Systems Design and Related Services,1-4,"521 Fellowship Rd # 120 MT LAUREL, NJ 08054-3413",,11.1,856-866-7500,Randy Schell,Vice President,CIRRING.COM,2000
Thrive,Information Technology Services,541500,Computer Systems Design and Related Services,10-99,"525 Fellowship Rd # 300 MT LAUREL, NJ 08054-3415",,11.1,877-799-2739,Tina Mach,CEO,THRIVENEXTGEN.COM,2007
Airclic,Computer Related Services NEC,541500,Computer Systems Design and Related Services,1-4,"411 S State St NEWTOWN, PA 18940-1990",,11.1,215-504-0560,,,DESCARTES.COM,2015
Fitzgerald & Co,Data Systems Consultants & Designers,541500,Computer Systems Design and Related Services,1-4,"530 Charleston Ct MT LAUREL, NJ 08054-2805",,11.1,856-273-9670,Brian Fitzgerald,President,FITZ-IN.COM,2007
Titan Technologies Inc,Information Technology Services,541500,Computer Systems Design and Related Services,10-99,"780 Newtown Yardley Rd # 324 NEWTOWN, PA 18940-4504",,11.1,215-968-4300,,,TITAN-TECHS.COM,2015
Maestro Technologies Inc,Software/Application/Platform Developers & Pr,541500,Computer Systems Design and Related Services,10-99,"1 W State St # 2 TRENTON, NJ 08608-1205",,11.1,908-458-8600,Sunil Lekhi,Director,DEV.MAESTRO.COM,2016
Business Logic,Computers-System Designers & Consultants,541500,Computer Systems Design and Related Services,10-99," SOUTHAMPTON, PA 18966",,11.2,215-497-0200,,,,1999
Computer Forge,Computers-System Designers & Consultants,541500,Computer Systems Design and Related Services,5-9,"67 Buck Rd SOUTHAMPTON, PA 18966",,11.2,215-942-0614,,,,2009
Biondo Creative,Website Design Service,541500,Computer Systems Design and Related Services,10-99,"1114 Tabor Ter PHILADELPHIA, PA 19111-1429",,11.2,267-362-9321,Anthony Biondo,President,BIONDOCREATIVE.COM,2013
Tecklink,Website Design Service,541500,Computer Systems Design and Related Services,1-4,"1021 Hoffnagle Pl PHILADELPHIA, PA 19111-1438",,11.2,215-740-7437,Dennis Mcguire,Owner,,2003
Marden Web Design,Website Design Service,541500,Computer Systems Design and Related Services,1-4,"2301 Dale Rd HUNTINGDON VLY, PA 19006-6408",,11.2,215-947-4712,Dennis Dunleavy,President,,2012
RV Global Solutions Inc,Computer Related Services NEC,541500,Computer Systems Design and Related Services,1-4,"247 E Front St # 1 TRENTON, NJ 08611-1717",,11.2,609-000-1111,,,RVGLOBALSOLUTIONS.COM,2018
Transcend It LLC,Computer Related Services NEC,541500,Computer Systems Design and Related Services,1-4,"247 E Front St # 1 TRENTON, NJ 08611-1717",,11.2,609-000-1111,,,,2019
Shaantek Inc,Computer Related Services NEC,541500,Computer Systems Design and Related Services,1-4,"15 Winter Rd SOUTHAMPTON, PA 18966-2732",,11.3,215-968-5069,,,,2009
MRS Consulting,Computers-System Designers & Consultants,541500,Computer Systems Design and Related Services,5-9,"1200 S Church St # 17 MT LAUREL, NJ 08054-2936",,11.3,856-914-9000,,,MRE-CONSULTING.COM,2000
Redzara LLC,Software/Application/Platform Developers & Pr,541500,Computer Systems Design and Related Services,1-4,"1 Colemantown Dr CHESTERFIELD, NJ 08515-9788",,11.3,609-000-1111,,,REDZARA.COM,2018
Red Nucleus,Information Technology Services,541500,Computer Systems Design and Related Services,10-99,"19 W College Ave # 300 YARDLEY, PA 19067-1577",,11.4,215-321-0705,Ian Kelly,CEO,REDNUCLEUS.COM,2016
Digital Wave Technologies Inc,Computer Related Services NEC,541500,Computer Systems Design and Related Services,1-4,"2522 Walton Rd HUNTINGDON VLY, PA 19006-6124",,11.5,267-808-2383,,,DIGITALWAVE.COM,2016
Parallel Edge Inc,Information Technology Services,541500,Computer Systems Design and Related Services,10-99,"718 Benson St PHILADELPHIA, PA 19111-1933",,11.5,610-293-0101,Sondra Lorino,President,,1996
Advanced Provider Solutions,Information Technology Services,541500,Computer Systems Design and Related Services,10-99,"2350 Huntingdon Pike HUNTINGDON VLY, PA 19006-6110",,11.5,215-659-1676,David Klein,Other,APS.G4HS.NET,2015
Iyushmed LLC,Computer Related Services NEC,541500,Computer Systems Design and Related Services,1-4,"1177 University Dr YARDLEY, PA 19067-2861",,11.5,215-000-1111,,,,2021
Telemed Ventures LLC,Computer Related Services NEC,541500,Computer Systems Design and Related Services,5-9,"1177 University Dr YARDLEY, PA 19067-2861",,11.5,215-431-8326,Raj Shah,President,TELEMEDVISIT.COM,1971
Dyn Tek,Information Technology Services,541500,Computer Systems Design and Related Services,10-99,"1120 Route 73 # 100 MT LAUREL, NJ 08054-5113",,11.5,856-834-1100,Joe Rubino,Director,DYNTEK.COM,2008
I T Asst LLC,Computers-System Designers & Consultants,541500,Computer Systems Design and Related Services,5-9,"2 Swamp Rd NEWTOWN, PA 18940-1525",,11.6,215-968-2702,,,,2013
Teamlogic IT,Information Technology Services,541500,Computer Systems Design and Related Services,10-99,"2 Swamp Rd NEWTOWN, PA 18940-1525",,11.6,215-968-4376,Stewart Paul,Owner,TEAMLOGICIT.COM,2006
Blackmagic Design Inc,Software/Application/Platform Developers & Pr,541500,Computer Systems Design and Related Services,1-4,"230 N Maple Ave MARLTON, NJ 08053-9400",,11.6,408-954-0500,,,BLACKMAGICDESIGN.COM,2002
Abir Enterprises,Computers-System Designers & Consultants,541500,Computer Systems Design and Related Services,5-9,"1199 Quarry Commons Dr YARDLEY, PA 19067-4021",,11.7,215-321-2266,,,,2012
Compusultants LLC,Computers-System Designers & Consultants,541500,Computer Systems Design and Related Services,5-9,"1816 Steamboat Sta SOUTHAMPTON, PA 18966-4185",,11.7,215-000-1111,,,,2014
Wright Computing Solutions,Website Design Service,541500,Computer Systems Design and Related Services,1-4,"3498 Delaware Ct PENNSAUKEN, NJ 08109-3841",,11.7,856-486-7973,,,,2004
HPT Systems Inc,Computers-System Designers & Consultants,541500,Computer Systems Design and Related Services,5-9,"283 2nd Street Pike # 170 SOUTHAMPTON, PA 18966-3870",,11.7,215-364-8226,Alan Herr,President,,1987
Dynamic Imaging Systems Inc,Software/Application/Platform Developers & Pr,541500,Computer Systems Design and Related Services,10-99,"1000 Atrium Way # 203 MT LAUREL, NJ 08054-3904",,11.8,856-988-1545,Linda Holmes,Owner,CORRETRAK.COM,2005
Watcher Inc,Information Technology Services,541500,Computer Systems Design and Related Services,10-99,"9000 Commerce Pkwy # H MT LAUREL, NJ 08054-2234",,11.8,856-222-0643,Marty Roselli,Vice President,,1930
Decision One,Computer Services,541500,Computer Systems Design and Related Services,10-99,"6000 Commerce Pkwy # F MT LAUREL, NJ 08054-2226",,11.8,856-231-8880,Rene Luyt,Director,DECISIONONE.COM,1998
PMC Advanced Technology LLC,Information Technology Services,541500,Computer Systems Design and Related Services,1-4,"1288 Route 73 # 120 MT LAUREL, NJ 08054-2237",,11.8,856-533-1882,Wei Chen,IT,PMC-AT.COM,2011
Datatech Labs Data Recovery,Software/Application/Platform Developers & Pr,541500,Computer Systems Design and Related Services,5-9,"3000 Atrium Way # 200 MT LAUREL, NJ 08054-3910",,11.9,856-600-4377,,,DATATECHLAB.COM,2019
Technology Business Solutions,Computers-System Designers & Consultants,541500,Computer Systems Design and Related Services,5-9,"3000 Atrium Way # 108 MT LAUREL, NJ 08054-3910",,11.9,856-778-5838,John Myer,Owner,TBSNETWORKS.NET,1994
Drextec Inc,Computers-System Designers & Consultants,541500,Computer Systems Design and Related Services,5-9,"20000 Horizon Way MT LAUREL, NJ 08054-4303",,11.9,856-234-7969,,,,2011
Patrick Macdonald Designs,Website Design Service,541500,Computer Systems Design and Related Services,1-4,"112 W Lynford Rd RICHBORO, PA 18954-1380",,11.9,215-932-3108,Patrick Mac Donald,Owner,PMDDESIGN.COM,2001
Yanilex Systems LLC,Software/Application/Platform Developers & Pr,541500,Computer Systems Design and Related Services,1-4,"1203 Gilham St PHILADELPHIA, PA 19111-5521",,12,267-746-1024,,,YANILEXSYSTEMS.COM,2019
Valerity,Information Technology Services,541500,Computer Systems Design and Related Services,1-4,"120 Cornwall Ave TRENTON, NJ 08618-3320",,12,609-000-1111,,,VALERITY.COM,2019
Leidos Inc,Computer Integrated Systems Design,541500,Computer Systems Design and Related Services,5-9,"3000 Lincoln Dr E # G MARLTON, NJ 08053-1500",,12,856-000-1111,,,,2021
F Z P Assoc,Website Design Service,541500,Computer Systems Design and Related Services,1-4,"23 Juniper Dr RICHBORO, PA 18954-1625",,12,215-000-1111,,,,2014
Correlative Inc,Computers-System Designers & Consultants,541500,Computer Systems Design and Related Services,10-99,"1 Eves Dr # 111 MARLTON, NJ 08053-3125",,12,856-810-0411,Ron Leone,Owner,CORRELATIVE.COM,1997
Crystal Data LLC,Software/Application/Platform Developers & Pr,541500,Computer Systems Design and Related Services,5-9,"1 Eves Dr # 145 MARLTON, NJ 08053-3125","1 Eves Dr
Marlton, NJ 08053-3125",12,856-000-1111,Saif Alam,Manager,CRYSTALDATASYSTEMS.NET,2018
South Jersey Techies,Information Technology Services,541500,Computer Systems Design and Related Services,5-9,"229 N Locust Ave MARLTON, NJ 08053-1773",,12.1,856-745-9990,Anit Shah,Owner,SOUTHJERSEYTECHIES.NET,2004
L H D Analytics Ltd,Information Technology Services,541500,Computer Systems Design and Related Services,10-99,"628 Harpers Ln HUNTINGDON VLY, PA 19006-8439",,12.1,215-000-1111,,,,2015
College of New Jersey,Software/Application/Platform Developers & Pr,541500,Computer Systems Design and Related Services,1-4,"15 Wilburtha Rd EWING, NJ 08628-2615",,12.2,609-000-1111,,,,2015
NJ Tek Squad,Computers-Support Services,541500,Computer Systems Design and Related Services,10-99,"802 Hoffman Ave TRENTON, NJ 08618-2908",,12.2,609-906-1175,,,,2014
Star Systems,Computers-System Designers & Consultants,541500,Computer Systems Design and Related Services,5-9,"1381 Rhoades Dr HUNTINGDON VLY, PA 19006-2621",,12.2,215-947-7711,,,,2000
Altek Business Systems,Information Technology Services,541500,Computer Systems Design and Related Services,5-9,"10000 Lincoln Dr E # 201 MARLTON, NJ 08053-3105",,12.2,856-334-6149,,,ALTEKIMAGING.COM,2023
FZP Digital,Website Design Service,541500,Computer Systems Design and Related Services,1-4,"851 Bustleton Pike # 286 RICHBORO, PA 18954-3035",,12.4,215-867-8617,,,FZPDIGITAL.COM,2019
Specialty Graphics,Computer Graphics,541500,Computer Systems Design and Related Services,1-4,"1950 Old Cuthbert Rd # H CHERRY HILL, NJ 08034-1439",,12.4,856-229-7903,,,,2011
PSC,Website Design Service,541500,Computer Systems Design and Related Services,1-4,"597 Deer Rd CHERRY HILL, NJ 08034-1747",,12.4,856-873-5655,,,HELPMEPCS.COM,2018
Techsoft Inc,Computers-System Designers & Consultants,541500,Computer Systems Design and Related Services,5-9,"801 Route 73 N MARLTON, NJ 08053-1282",,12.4,856-334-8953,,,MDRHYTHM.COM,2013
Xact It Solutions,Computers-Support Services,541500,Computer Systems Design and Related Services,1-4,"751 Route 73 N # 7 MARLTON, NJ 08053-3456",,12.4,856-282-4100,Bryan Hornung,Manager,XITX.COM,2004
Dunleavy Inc,Software/Application/Platform Developers & Pr,541500,Computer Systems Design and Related Services,10-99,"16 Muirfield Ct MEDFORD, NJ 08055-8729",,12.5,609-707-8143,Victoria Dunleavy,Owner,DUNLEAVYINC.COM,2011
Presidio Networked Solutions,Data Communications Systems-Networks,541500,Computer Systems Design and Related Services,1-4,"600 Deer Rd # 4 CHERRY HILL, NJ 08034-1450",,12.5,610-684-2900,,,PRESIDIO.COM,2018
Liberty Fox Technologies LLC,Software/Application/Platform Developers & Pr,541500,Computer Systems Design and Related Services,1-4,"931 Huntingdon Pike HUNTINGDON VLY, PA 19006-8305",,12.5,215-935-6047,William Evans,Owner,LIBERTYFOXTECH.COM,2010
Weblink Studio,Website Design Service,541500,Computer Systems Design and Related Services,1-4,"418 Parkview Way NEWTOWN, PA 18940-1141",,12.5,267-364-0300,Gudrun Frank,President,,2008
Insap Services Inc,Software/Application/Platform Developers & Pr,541500,Computer Systems Design and Related Services,1-4,"651 Route 73 N # 103 MARLTON, NJ 08053-3445",,12.6,856-810-5772,Ritu Sehgal,Owner,INSAPINC.COM,2007
CTB Systems,Computers-System Designers & Consultants,541500,Computer Systems Design and Related Services,5-9,"1916 Old Cuthbert Rd CHERRY HILL, NJ 08034-1457",,12.6,856-857-0670,David Mickelson,Owner,CTBSYS.COM,1998
Limebox Networks,Data Communications Systems-Networks,541500,Computer Systems Design and Related Services,5-9,"1916 Old Cuthbert Rd # B13 CHERRY HILL, NJ 08034-1459","PO Box 3641
Cherry Hill, NJ 08034-0560",12.6,856-942-4079,Charles Phillips,CIO/CTO,LIMEBOXSERVICES.COM,2015
Montagna Associates,Computer Consultants,541500,Computer Systems Design and Related Services,1-4,"60 Wilburtha Rd EWING, NJ 08628-2634",,12.6,609-530-8946,John Montagna,Owner,MONTAGNAASSOC.COM,2011
Dynamic Imaging Systems Inc,Software/Application/Platform Developers & Pr,541500,Computer Systems Design and Related Services,1-4,"733 Route 70 E MARLTON, NJ 08053-2300",,12.6,856-988-1545,,,,2015
Cablenet Services Unltd Inc,Computers-Networking,541500,Computer Systems Design and Related Services,10-99,"3000 Orthodox St PHILADELPHIA, PA 19137-2047",,12.6,215-613-8912,,,,2012
NEKEY.COM,Computers-Networking,541500,Computer Systems Design and Related Services,1-4,"7215 Maple Ave PENNSAUKEN, NJ 08109-2945",,12.6,856-663-1332,,,,2019
NJ Technology,Website Design Service,541500,Computer Systems Design and Related Services,10-99,"525 Route 73 N MARLTON, NJ 08053-3422",,12.6,609-451-0028,,,NJTECHNOLOGY.COM,2005
South Jersey Web Design,Website Design Service,541500,Computer Systems Design and Related Services,5-9,"525 Route 73 N MARLTON, NJ 08053-3422",,12.6,609-422-5888,Brian Depue,Business Dev,SOUTHJERSEYWEBDESIGN.COM,1997
Data Experts,Software/Application/Platform Developers & Pr,541500,Computer Systems Design and Related Services,1-4,"909 Coates Rd JENKINTOWN, PA 19046-2541",,12.7,215-782-3560,Shep Poor,CEO,DATAEXPERTS.COM,2002
RHD Mainstay,Programming,541500,Computer Systems Design and Related Services,1-4,"6324 Palmetto St PHILADELPHIA, PA 19111-5712",,12.7,267-343-8922,,,,2018
Webesco LLC,Website Design Service,541500,Computer Systems Design and Related Services,1-4,"125 Westminster Ave MARLTON, NJ 08053-1669",,12.7,215-416-5526,Ernest Tedesco Jr,Manager,WEBESCO.NET,2007
Telesto Group LLC,Computer Related Services NEC,541500,Computer Systems Design and Related Services,1-4,"1 N Johnston Ave # A220 TRENTON, NJ 08609-1806",,12.7,609-503-7260,Dinesh Malhotra,Director,GSWELL.COM,2016
Peer 2 Peer Networking Inc,Computers-Networking,541500,Computer Systems Design and Related Services,1-4,"133 Westminster Ave EVESHAM, NJ 08053-1669",,12.8,856-574-4428,,,,2011
B & D Contributor Recognition,Donor Recognition Systems,541500,Computer Systems Design and Related Services,5-9,"1879 Old Cuthbert Rd CHERRY HILL, NJ 08034-1433",,12.8,856-354-2004,Bernard Epworth,Owner,,2001
Paramount Advanced Wireless,Computers-Networking,541500,Computer Systems Design and Related Services,1-4,"851 Bethel Ave PENNSAUKEN, NJ 08110-2605",,12.8,609-313-1353,,,PARAMOUNTADVANCEDWIRELESS.COM,2012
Innovative Attorney Marketing,Website Design Service,541500,Computer Systems Design and Related Services,1-4,"1 Keystone Ave # 700 CHERRY HILL, NJ 08003-1628",,12.9,856-834-2251,,,,2023
PM Federal LLC,Computer Related Services NEC,541500,Computer Systems Design and Related Services,1-4,"544 Ashbourne Rd CHELTENHAM, PA 19012-1702",,13,215-000-1111,,,PMFEDERAL.COM,2018
Jireh Technologies LLC,Website Design Service,541500,Computer Systems Design and Related Services,1-4,"1800 E State St # 150 TRENTON, NJ 08609-2022",,13,609-587-2350,Victor Guzman,Owner,JIREH-TECHNOLOGIES.COM,2011
Sussman Consultants,Website Design Service,541500,Computer Systems Design and Related Services,5-9,"1800 E State St # 134 HAMILTON, NJ 08609-2022",,13,732-853-8858,Stephen Mittler,Vice President,SUSSMANCONSULTANTS.COM,2019
Decision Research Corp,Software/Application/Platform Developers & Pr,541500,Computer Systems Design and Related Services,10-99,"300 Stevens St PHILADELPHIA, PA 19111-6021",,13,808-983-9171,Joseph Sturges,IT,DECISIONRESEARCH.COM,2019
Health Tech Pal Corp,Computer Related Services NEC,541500,Computer Systems Design and Related Services,1-4,"1930 Marlton Pike E # Q37 CHERRY HILL, NJ 08003-4204",,13.2,856-000-1111,,,,2021
Integrated Technology Strtgs,Information Technology Services,541500,Computer Systems Design and Related Services,10-99,"1930 Marlton Pike E CHERRY HILL, NJ 08003-2150",,13.2,856-283-2114,Tom Sundar,Manager,INTEGRATEDTECHSTRATEGIES.COM,2012
Networkzing,Computers-Networking,541500,Computer Systems Design and Related Services,1-4,"1814 Marlton Pike E CHERRY HILL, NJ 08003-2057",,13.2,856-673-4050,,,NETWORKZING.COM,2007
Networking Concierge Support,Computers-Networking,541500,Computer Systems Design and Related Services,1-4,"123 E Main St # 1267 MARLTON, NJ 08053-7460",,13.3,609-923-1301,,,,2016
Techstarters,Information Technology Services,541500,Computer Systems Design and Related Services,1-4,"1111 Marlkress Rd # 204 CHERRY HILL, NJ 08003-2334",,13.3,877-932-0040,Rich Snyder,Manager,TECHSTARTERS.COM,2010
Aurora Information System,Computer Services,541500,Computer Systems Design and Related Services,5-9,"1873 Marlton Pike E # 220 CHERRY HILL, NJ 08003-2036",,13.3,856-596-4180,John Sooy,President,FOODPRO.COM,2000
Entercomteck,Computers-Networking,541500,Computer Systems Design and Related Services,10-99,"111 Lawrence Rd LAWRENCE TWP, NJ 08648-4307",,13.3,609-571-9347,,,,2014
Electrosonic,Computer Integrated Systems Design,541500,Computer Systems Design and Related Services,10-99,"1239 Parkway Ave # 202 EWING, NJ 08628-3000",,13.3,609-882-2656,,,ELECTROSONIC.COM,1982
Tech Commandos Inc,Computers-Networking,541500,Computer Systems Design and Related Services,5-9,"46 S Maple Ave MARLTON, NJ 08053-2002",,13.3,856-912-4670,James Davis,President,TECHCOMMANDOS.COM,2013
Set Now Solutions,Website Design Service,541500,Computer Systems Design and Related Services,1-4,"33 Ronit Dr EWING, NJ 08628-2225",,13.3,609-406-1665,Michael Miller,Vice President,CORPNOTE.COM,2004
Wickford Group Consultants,Computer Integrated Systems Design,541500,Computer Systems Design and Related Services,1-4,"118 Partree Rd CHERRY HILL, NJ 08003-2112",,13.3,856-751-6216,David Rockford,President,,2009
Andlogic Computers,Computer Disaster Planning,541500,Computer Systems Design and Related Services,1-4,"200A Whitehead Rd # 212 TRENTON, NJ 08619-3290",,13.3,609-858-9823,,,ANDLOGICCOMPUTERS.NET,2012
M N G S Inc,Software/Application/Platform Developers & Pr,541500,Computer Systems Design and Related Services,1-4,"40 Silo Hill Dr RICHBORO, PA 18954-1145",,13.4,215-000-1111,Michael Gorevoy,President,,2014
Digital Facilities Management,Website Design Service,541500,Computer Systems Design and Related Services,5-9,"401 Cooper Landing Rd # C9 CHERRY HILL, NJ 08002-2538",,13.4,856-667-1187,Michael Jewel,Owner,DIGITALFM.COM,2007
Hallmark Health Care Solutions,Computer Related Services NEC,541500,Computer Systems Design and Related Services,1-4,"RR 73 Box 525 MARLTON, NJ 08053",,13.4,214-905-1900,,,,2017
Pro Computer Svc LLC,Computer Services,541500,Computer Systems Design and Related Services,5-9,"12000 Lincoln Dr W MARLTON, NJ 08053-3401",,13.4,856-596-4446,,,HELPMEPCS.COM,2016
Sagapixel,Website Design Service,541500,Computer Systems Design and Related Services,10-99,"523 Hollywood Ave # 201 CHERRY HILL, NJ 08002-2860",,13.5,856-701-7947,,,SAGAPIXEL.COM,2018
Ideal PCS Inc,Computer Services,541500,Computer Systems Design and Related Services,1-4,"1603 E Erie Ave PHILADELPHIA, PA 19124-4441",,13.5,215-000-1111,,,,2015
Redeye Inc,Information Technology Services,541500,Computer Systems Design and Related Services,5-9,"1675 Whitehorse Mercerville Rd TRENTON, NJ 08619-3825",,13.5,732-475-2717,Ed Wenzel,CEO,REDEYE.TECH,2005
Adaptive Clinical Systems,Computer Integrated Systems Design,541500,Computer Systems Design and Related Services,1-4,"1175 Marlkress Rd # 2632 CHERRY HILL, NJ 08034-8043",,13.6,856-452-0864,,,ADAPTIVE-CLINICAL.COM,2015
Landisnetusa,Website Design Service,541500,Computer Systems Design and Related Services,1-4,"722 Landis St PHILADELPHIA, PA 19124-3011",,13.6,215-837-3698,Russell Smith,Owner,,2005
Database Solutions Inc,Website Design Service,541500,Computer Systems Design and Related Services,10-99,"325 Marlton Pike E CHERRY HILL, NJ 08034-2408",,13.6,856-616-1500,George Brown,President,WAVESEEKER.COM,2012
Integrated Laser Technology,Computer Services,541500,Computer Systems Design and Related Services,1-4,"448 Whitehead Rd # 3 TRENTON, NJ 08619-3282",,13.6,609-584-1617,Rich Garton,CEO,,2000
Equinox Software Solutions Inc,Computers-System Designers & Consultants,541500,Computer Systems Design and Related Services,5-9,"12 Kingswood Ct MARLTON, NJ 08053-2557",,13.7,856-810-0244,,,,2000
Systems & Scientific Software,Software/Application/Platform Developers & Pr,541500,Computer Systems Design and Related Services,5-9,"263 Forrest Ave ELKINS PARK, PA 19027-1938",,13.7,215-885-1573,,,DANIELWILLIAMS.ORG,2015
Qt's Computer Svc,Computer Services,541500,Computer Systems Design and Related Services,1-4,"6330 Foxhill Rd PHILADELPHIA, PA 19120-1018",,13.8,267-816-4721,Quincy Thomas,Owner,QTSCOMPUTERSERVICE.COM,2019
Koodoo Enterprises LLC,Software/Application/Platform Developers & Pr,541500,Computer Systems Design and Related Services,1-4,"380 Tavistock Dr MEDFORD, NJ 08055-9261",,13.8,609-000-1111,,,,2022
Craden Peripherals Corp,Computer Services,541500,Computer Systems Design and Related Services,5-9,"5865 Clayton Ave # B PENNSAUKEN, NJ 08109-1351",,13.8,856-488-0700,Ernest Goff,Engr/Tech,CRADEN.COM,2018
Satya Consulting Inc,Computer Integrated Systems Design,541500,Computer Systems Design and Related Services,5-9,"63 Buckingham Pl # 63 CHERRY HILL, NJ 08003-2667",,13.8,908-000-1111,,,,2023
Netimetry Lic,Computers-Networking,541500,Computer Systems Design and Related Services,1-4,"23 Stanwood Ct MEDFORD, NJ 08055-9373","617 Stokes Rd
Medford, NJ 08055-3097",13.9,609-654-2641,William Montney,Owner,NETIMETRY.COM,2003
Computer Image Systems Inc,Information Management,541500,Computer Systems Design and Related Services,1-4,"675 W Maple Ave MERCHANTVILLE, NJ 08109-1819","PO Box 1246
Merchantville, NJ 08109-0246",13.9,856-662-1900,George Coroneos,President,COM-IMAGE.COM,1974
Glows Corp,Computer Related Services NEC,541500,Computer Systems Design and Related Services,1-4,"923 Haddonfield Rd CHERRY HILL, NJ 08002-2752","923 Haddonfield Road Sste 300
Cherry Hill, NJ 08002",13.9,215-000-1111,,,,2022
VB Graphics,Website Design Service,541500,Computer Systems Design and Related Services,1-4,"726 Mayflower Ave LAWRENCE TWP, NJ 08648-4402",,14,609-393-6368,Valerie Baehr,Owner,,2009
Teamlogic IT,Information Technology Services,541500,Computer Systems Design and Related Services,10-99,"535 Route 38 CHERRY HILL, NJ 08002-2953",,14,856-238-5655,Stewart Paul,Manager,TEAMLOGICIT.COM,2016
Pro Computer Svc LLC,Computer Services,541500,Computer Systems Design and Related Services,5-9,"182 Tuckerton Rd MEDFORD LAKES, NJ 08055-1346",,14,856-596-4446,,,HELPMEPCS.COM,2018
Coventry Innvtion Advisors LLC,Software/Application/Platform Developers & Pr,541500,Computer Systems Design and Related Services,1-4,"7487 Coventry Ave ELKINS PARK, PA 19027-3433",,14,412-000-1111,,,,2023
Joulebook Inc,Information Technology Services,541500,Computer Systems Design and Related Services,1-4," MEDFORD, NJ 08055",,14.1,609-388-8369,,,,2020
Colored Girl Productions Inc,Website Design Service,541500,Computer Systems Design and Related Services,1-4,"1657 the Fairway JENKINTOWN, PA 19046-1423",,14.1,215-576-7882,,,,2018
Assetworks Inc,Computers-System Designers & Consultants,541500,Computer Systems Design and Related Services,5-9,"261 Old York Rd # 305 JENKINTOWN, PA 19046-3709",,14.1,215-354-1078,Gordon Smith,Vice President,ASSETWORKS.COM,2010
New Jersey Web Design Pros,Website Design Service,541500,Computer Systems Design and Related Services,1-4,"541 Nj-33 # 4 TRENTON, NJ 08619",,14.1,609-775-9056,,,,2023
Data Jugglers Computing Inc,Computer Related Services NEC,541500,Computer Systems Design and Related Services,1-4,"617 Stokes Rd # 4-296 MEDFORD, NJ 08055-3097",,14.2,856-354-8222,Lawrence Argabright,CEO,,2004
Netimetry LLC,Information Technology Services,541500,Computer Systems Design and Related Services,1-4,"617 Stokes Rd # 4-155 MEDFORD, NJ 08055-3097","PO Box 23-398
Medford, NJ 08055",14.2,609-654-2641,,,NETIMETRY.COM,2019
Panacea Direct Inc,Website Design Service,541500,Computer Systems Design and Related Services,1-4,"820 Bear Tavern Rd EWING, NJ 08628-1021",,14.2,888-509-6258,,,PANACEADIRECT.COM,2015
Abington Institute of Tech,Information Technology Services,541500,Computer Systems Design and Related Services,10-99,"2735 Terwood Rd WILLOW GROVE, PA 19090-1430",,14.2,267-607-5211,Kojo Danso,Administrator,,2018
General Dynamics Info Tech Inc,Software/Application/Platform Developers & Pr,541500,Computer Systems Design and Related Services,10-99,"3 Executive Campus # 150 CHERRY HILL, NJ 08002-4121",,14.2,856-000-1111,,,,2021
Context,Website Design Service,541500,Computer Systems Design and Related Services,5-9,"415 Davisville Rd WILLOW GROVE, PA 19090-2700",,14.3,215-346-2194,,,EASTERNSTANDARD.COM,2010
Teamlogic IT,Information Technology Services,541500,Computer Systems Design and Related Services,1-4,"93 Old York Rd # 1-531 JENKINTOWN, PA 19046-3925",,14.3,267-454-6009,Stewart Paul,Manager,TEAMLOGICIT.COM,2016
Effectiv Internet Solutions,Computers-System Designers & Consultants,541500,Computer Systems Design and Related Services,5-9,"746 Yorkway Pl JENKINTOWN, PA 19046-2712","746 Yorkway Pl # 1
Jenkintown, PA 19046-2712",14.3,610-567-0063,,,EISOLUTIONS.COM,1997
IDM People,Information Management,541500,Computer Systems Design and Related Services,5-9,"3240 E State Street Ext HAMILTON, NJ 08619-4510",,14.3,609-300-6666,,,IDMPEOPLE.COM,2018
KPG99 Inc,Information Technology Services,541500,Computer Systems Design and Related Services,10-99,"3240 E State Street Ext HAMILTON, NJ 08619-4510",,14.3,609-357-4924,Puneet Gulati,CEO,KPG99.COM,2015
Rockbridge Designs,Website Design Service,541500,Computer Systems Design and Related Services,1-4,"7 Peter Rafferty Dr TRENTON, NJ 08690-1817",,14.3,609-631-0609,,,ROCKBRIDGEDESIGNS.COM,2010
Solvix Solutions,Information Technology Services,541500,Computer Systems Design and Related Services,10-99,"201 Glenview Ct MARLTON, NJ 08053-2415",,14.4,856-000-1111,,,SOLVIXSOLUTIONS.COM,2016
I Grind Nation LLC,Website Design Service,541500,Computer Systems Design and Related Services,5-9,"2095 E Willard St PHILADELPHIA, PA 19134-3241",,14.4,267-239-0474,Keith Burroughs,Owner,,2019
Nebulent Inc,Software/Application/Platform Developers & Pr,541500,Computer Systems Design and Related Services,10-99,"55 Kasi Cir WARMINSTER, PA 18974-1653",,14.4,267-408-3699,,,,2011
